[{"OBJECT_NAME":"STARLINK-2110","OBJECT_ID":"2021-005AS","EPOCH":"2026-03-09T07:10:50.702016","MEAN_MOTION":15.3019699,"ECCENTRICITY":0.00014055,"INCLINATION":53.163,"RA_OF_ASC_NODE":38.5709,"ARG_OF_PERICENTER":97.3418,"MEAN_ANOMALY":262.7743,"EPHEMERIS_TYPE":0,"CLASSIFICATION_TYPE":"U","NORAD_CAT_ID":47389,"ELEMENT_SET_NO":999,"REV_AT_EPOCH":28333,"BSTAR":9.5880733e-5,"MEAN_MOTION_DOT":2.481e-5,"MEAN_MOTION_DDOT":0},{"OBJECT_NAME":"OBJECT A","OBJECT_ID":"2023-189A","EPOCH":"2026-03-09T22:59:06.381600","MEAN_MOTION":15.32403275,"ECCENTRICITY":0.00094831,"INCLINATION":97.4458,"RA_OF_ASC_NODE":86.5997,"ARG_OF_PERICENTER":249.5377,"MEAN_ANOMALY":110.4847,"EPHEMERIS_TYPE":0,"CLASSIFICATION_TYPE":"U","NORAD_CAT_ID":58502,"ELEMENT_SET_NO":999,"REV_AT_EPOCH":12601,"BSTAR":0.00019874471,"MEAN_MOTION_DOT":6.146e-5,"MEAN_MOTION_DDOT":0}]
